CCSDS_OMM_VERS = 2.0
CREATION_DATE  = 
ORIGINATOR     = 

OBJECT_NAME    = TWILIGHT V
OBJECT_ID      = 2026-004V
CENTER_NAME    = EARTH
REF_FRAME      = TEME
TIME_SYSTEM    = UTC
MEAN_ELEMENT_THEORY = SGP/SGP4

EPOCH          = 2026-02-05T10:15:50.889312
MEAN_MOTION    = 14.88030666
ECCENTRICITY   = .0004436
INCLINATION    = 97.8008
RA_OF_ASC_NODE = 37.1871
ARG_OF_PERICENTER = 176.0554
MEAN_ANOMALY   = 184.0698

EPHEMERIS_TYPE = 0
CLASSIFICATION_TYPE = U
NORAD_CAT_ID   = 67382
ELEMENT_SET_NO = 999
REV_AT_EPOCH   = 369
BSTAR          = .42073E-3
MEAN_MOTION_DOT = .3811E-4
MEAN_MOTION_DDOT = 0

CCSDS_OMM_VERS = 2.0
CREATION_DATE  = 
ORIGINATOR     = 

OBJECT_NAME    = TWILIGHT W
OBJECT_ID      = 2026-004W
CENTER_NAME    = EARTH
REF_FRAME      = TEME
TIME_SYSTEM    = UTC
MEAN_ELEMENT_THEORY = SGP/SGP4

EPOCH          = 2026-02-05T11:59:14.950176
MEAN_MOTION    = 14.87761239
ECCENTRICITY   = .000473
INCLINATION    = 97.7984
RA_OF_ASC_NODE = 37.2421
ARG_OF_PERICENTER = 192.6573
MEAN_ANOMALY   = 167.4526

EPHEMERIS_TYPE = 0
CLASSIFICATION_TYPE = U
NORAD_CAT_ID   = 67383
ELEMENT_SET_NO = 999
REV_AT_EPOCH   = 370
BSTAR          = .38685E-3
MEAN_MOTION_DOT = .3476E-4
MEAN_MOTION_DDOT = 0

CCSDS_OMM_VERS = 2.0
CREATION_DATE  = 
ORIGINATOR     = 

OBJECT_NAME    = TWILIGHT X
OBJECT_ID      = 2026-004X
CENTER_NAME    = EARTH
REF_FRAME      = TEME
TIME_SYSTEM    = UTC
MEAN_ELEMENT_THEORY = SGP/SGP4

EPOCH          = 2026-02-05T10:12:20.723040
MEAN_MOTION    = 14.88212471
ECCENTRICITY   = .0003772
INCLINATION    = 97.7983
RA_OF_ASC_NODE = 37.1849
ARG_OF_PERICENTER = 176.5809
MEAN_ANOMALY   = 183.5434

EPHEMERIS_TYPE = 0
CLASSIFICATION_TYPE = U
NORAD_CAT_ID   = 67384
ELEMENT_SET_NO = 999
REV_AT_EPOCH   = 369
BSTAR          = -.17594E-4
MEAN_MOTION_DOT = -.216E-5
MEAN_MOTION_DDOT = 0

CCSDS_OMM_VERS = 2.0
CREATION_DATE  = 
ORIGINATOR     = 

OBJECT_NAME    = TWILIGHT Y
OBJECT_ID      = 2026-004Y
CENTER_NAME    = EARTH
REF_FRAME      = TEME
TIME_SYSTEM    = UTC
MEAN_ELEMENT_THEORY = SGP/SGP4

EPOCH          = 2026-02-05T10:10:05.956320
MEAN_MOTION    = 14.88418387
ECCENTRICITY   = .0003937
INCLINATION    = 97.7995
RA_OF_ASC_NODE = 37.1893
ARG_OF_PERICENTER = 168.4749
MEAN_ANOMALY   = 191.6559

EPHEMERIS_TYPE = 0
CLASSIFICATION_TYPE = U
NORAD_CAT_ID   = 67385
ELEMENT_SET_NO = 999
REV_AT_EPOCH   = 369
BSTAR          = .10701E-2
MEAN_MOTION_DOT = .988E-4
MEAN_MOTION_DDOT = 0

CCSDS_OMM_VERS = 2.0
CREATION_DATE  = 
ORIGINATOR     = 

OBJECT_NAME    = TWILIGHT Z
OBJECT_ID      = 2026-004Z
CENTER_NAME    = EARTH
REF_FRAME      = TEME
TIME_SYSTEM    = UTC
MEAN_ELEMENT_THEORY = SGP/SGP4

EPOCH          = 2026-02-05T10:08:14.261856
MEAN_MOTION    = 14.88359163
ECCENTRICITY   = .0002703
INCLINATION    = 97.7975
RA_OF_ASC_NODE = 37.1879
ARG_OF_PERICENTER = 166.0656
MEAN_ANOMALY   = 194.0636

EPHEMERIS_TYPE = 0
CLASSIFICATION_TYPE = U
NORAD_CAT_ID   = 67386
ELEMENT_SET_NO = 999
REV_AT_EPOCH   = 369
BSTAR          = .57771E-3
MEAN_MOTION_DOT = .5297E-4
MEAN_MOTION_DDOT = 0

CCSDS_OMM_VERS = 2.0
CREATION_DATE  = 
ORIGINATOR     = 

OBJECT_NAME    = TWILIGHT AA
OBJECT_ID      = 2026-004AA
CENTER_NAME    = EARTH
REF_FRAME      = TEME
TIME_SYSTEM    = UTC
MEAN_ELEMENT_THEORY = SGP/SGP4

EPOCH          = 2026-02-05T10:01:43.757184
MEAN_MOTION    = 14.88722903
ECCENTRICITY   = .0003989
INCLINATION    = 97.8026
RA_OF_ASC_NODE = 37.2021
ARG_OF_PERICENTER = 140.3414
MEAN_ANOMALY   = 219.8095

EPHEMERIS_TYPE = 0
CLASSIFICATION_TYPE = U
NORAD_CAT_ID   = 67387
ELEMENT_SET_NO = 999
REV_AT_EPOCH   = 369
BSTAR          = .10263E-2
MEAN_MOTION_DOT = .9544E-4
MEAN_MOTION_DDOT = 0

CCSDS_OMM_VERS = 2.0
CREATION_DATE  = 
ORIGINATOR     = 

OBJECT_NAME    = TWILIGHT AB
OBJECT_ID      = 2026-004AB
CENTER_NAME    = EARTH
REF_FRAME      = TEME
TIME_SYSTEM    = UTC
MEAN_ELEMENT_THEORY = SGP/SGP4

EPOCH          = 2026-02-05T09:58:56.282880
MEAN_MOTION    = 14.88822482
ECCENTRICITY   = .000355
INCLINATION    = 97.8015
RA_OF_ASC_NODE = 37.2026
ARG_OF_PERICENTER = 130.4598
MEAN_ANOMALY   = 229.6929

EPHEMERIS_TYPE = 0
CLASSIFICATION_TYPE = U
NORAD_CAT_ID   = 67388
ELEMENT_SET_NO = 999
REV_AT_EPOCH   = 369
BSTAR          = .10331E-2
MEAN_MOTION_DOT = .9632E-4
MEAN_MOTION_DDOT = 0

CCSDS_OMM_VERS = 2.0
CREATION_DATE  = 
ORIGINATOR     = 

OBJECT_NAME    = TWILIGHT AC
OBJECT_ID      = 2026-004AC
CENTER_NAME    = EARTH
REF_FRAME      = TEME
TIME_SYSTEM    = UTC
MEAN_ELEMENT_THEORY = SGP/SGP4

EPOCH          = 2026-02-05T09:59:37.982112
MEAN_MOTION    = 15.17156192
ECCENTRICITY   = .0005274
INCLINATION    = 97.4572
RA_OF_ASC_NODE = 37.3843
ARG_OF_PERICENTER = 82.7919
MEAN_ANOMALY   = 277.3914

EPHEMERIS_TYPE = 0
CLASSIFICATION_TYPE = U
NORAD_CAT_ID   = 67389
ELEMENT_SET_NO = 999
REV_AT_EPOCH   = 376
BSTAR          = .43727E-3
MEAN_MOTION_DOT = .8619E-4
MEAN_MOTION_DDOT = 0

CCSDS_OMM_VERS = 2.0
CREATION_DATE  = 
ORIGINATOR     = 

OBJECT_NAME    = CONNECTA IOT-16
OBJECT_ID      = 2026-004AD
CENTER_NAME    = EARTH
REF_FRAME      = TEME
TIME_SYSTEM    = UTC
MEAN_ELEMENT_THEORY = SGP/SGP4

EPOCH          = 2026-02-05T09:59:35.273472
MEAN_MOTION    = 15.17003676
ECCENTRICITY   = .000547
INCLINATION    = 97.4572
RA_OF_ASC_NODE = 37.3858
ARG_OF_PERICENTER = 78.7010
MEAN_ANOMALY   = 281.4838

EPHEMERIS_TYPE = 0
CLASSIFICATION_TYPE = U
NORAD_CAT_ID   = 67390
ELEMENT_SET_NO = 999
REV_AT_EPOCH   = 376
BSTAR          = .91384E-3
MEAN_MOTION_DOT = .18029E-3
MEAN_MOTION_DDOT = 0

CCSDS_OMM_VERS = 2.0
CREATION_DATE  = 
ORIGINATOR     = 

OBJECT_NAME    = FLAMINGO-1
OBJECT_ID      = 2026-004AE
CENTER_NAME    = EARTH
REF_FRAME      = TEME
TIME_SYSTEM    = UTC
MEAN_ELEMENT_THEORY = SGP/SGP4

EPOCH          = 2026-02-05T11:29:48.261984
MEAN_MOTION    = 15.17269159
ECCENTRICITY   = .000667
INCLINATION    = 97.4526
RA_OF_ASC_NODE = 37.4379
ARG_OF_PERICENTER = 73.2780
MEAN_ANOMALY   = 286.9185

EPHEMERIS_TYPE = 0
CLASSIFICATION_TYPE = U
NORAD_CAT_ID   = 67391
ELEMENT_SET_NO = 999
REV_AT_EPOCH   = 377
BSTAR          = .81857E-3
MEAN_MOTION_DOT = .16265E-3
MEAN_MOTION_DDOT = 0

CCSDS_OMM_VERS = 2.0
CREATION_DATE  = 
ORIGINATOR     = 

OBJECT_NAME    = TWILIGHT AF
OBJECT_ID      = 2026-004AF
CENTER_NAME    = EARTH
REF_FRAME      = TEME
TIME_SYSTEM    = UTC
MEAN_ELEMENT_THEORY = SGP/SGP4

EPOCH          = 2026-02-05T11:19:38.079264
MEAN_MOTION    = 15.18117783
ECCENTRICITY   = .0007536
INCLINATION    = 97.4419
RA_OF_ASC_NODE = 37.3931
ARG_OF_PERICENTER = 77.5088
MEAN_ANOMALY   = 282.6989

EPHEMERIS_TYPE = 0
CLASSIFICATION_TYPE = U
NORAD_CAT_ID   = 67392
ELEMENT_SET_NO = 999
REV_AT_EPOCH   = 377
BSTAR          = .14786E-2
MEAN_MOTION_DOT = .30219E-3
MEAN_MOTION_DDOT = 0

CCSDS_OMM_VERS = 2.0
CREATION_DATE  = 
ORIGINATOR     = 

OBJECT_NAME    = TWILIGHT AG
OBJECT_ID      = 2026-004AG
CENTER_NAME    = EARTH
REF_FRAME      = TEME
TIME_SYSTEM    = UTC
MEAN_ELEMENT_THEORY = SGP/SGP4

EPOCH          = 2026-02-05T06:33:54.345888
MEAN_MOTION    = 15.18002136
ECCENTRICITY   = .00076032
INCLINATION    = 97.4571
RA_OF_ASC_NODE = 37.2805
ARG_OF_PERICENTER = 77.9379
MEAN_ANOMALY   = 282.2707

EPHEMERIS_TYPE = 0
CLASSIFICATION_TYPE = U
NORAD_CAT_ID   = 67393
ELEMENT_SET_NO = 999
REV_AT_EPOCH   = 374
BSTAR          = .11007454E-2
MEAN_MOTION_DOT = .22381E-3
MEAN_MOTION_DDOT = 0

