TWILIGHT V              
1 67382U 26004V   26036.42767233  .00003811  00000+0  42073-3 0  9990
2 67382  97.8008  37.1871 0004436 176.0554 184.0698 14.88030666  3698
TWILIGHT W              
1 67383U 26004W   26036.49947859  .00003476  00000+0  38685-3 0  9993
2 67383  97.7984  37.2421 0004730 192.6573 167.4526 14.87761239  3708
TWILIGHT X              
1 67384U 26004X   26036.42523985 -.00000216  00000+0 -17594-4 0  9995
2 67384  97.7983  37.1849 0003772 176.5809 183.5434 14.88212471  3694
TWILIGHT Y              
1 67385U 26004Y   26036.42368005  .00009880  00000+0  10701-2 0  9991
2 67385  97.7995  37.1893 0003937 168.4749 191.6559 14.88418387  3695
TWILIGHT Z              
1 67386U 26004Z   26036.42238729  .00005297  00000+0  57771-3 0  9998
2 67386  97.7975  37.1879 0002703 166.0656 194.0636 14.88359163  3698
TWILIGHT AA             
1 67387U 26004AA  26036.41786756  .00009544  00000+0  10263-2 0  9999
2 67387  97.8026  37.2021 0003989 140.3414 219.8095 14.88722903  3692
TWILIGHT AB             
1 67388U 26004AB  26036.41592920  .00009632  00000+0  10331-2 0  9992
2 67388  97.8015  37.2026 0003550 130.4598 229.6929 14.88822482  3691
TWILIGHT AC             
1 67389U 26004AC  26036.41641183  .00008619  00000+0  43727-3 0  9999
2 67389  97.4572  37.3843 0005274  82.7919 277.3914 15.17156192  3768
CONNECTA IOT-16         
1 67390U 26004AD  26036.41638048  .00018029  00000+0  91384-3 0  9995
2 67390  97.4572  37.3858 0005470  78.7010 281.4838 15.17003676  3760
FLAMINGO-1              
1 67391U 26004AE  26036.47903081  .00016265  00000+0  81857-3 0  9998
2 67391  97.4526  37.4379 0006670  73.2780 286.9185 15.17269159  3772
TWILIGHT AF             
1 67392U 26004AF  26036.47196851  .00030219  00000+0  14786-2 0  9999
2 67392  97.4419  37.3931 0007536  77.5088 282.6989 15.18117783  3778
TWILIGHT AG             
1 67393U 26004AG  26036.27354567  .00022381  00000+0  11007-2 0  9992
2 67393  97.4571  37.2805 0007603  77.9379 282.2707 15.18002136  3745
